[{"OBJECT_NAME":"DAMPE","OBJECT_ID":"2015-078A","EPOCH":"2026-03-09T23:55:00.527232","MEAN_MOTION":15.30502084,"ECCENTRICITY":0.00138005,"INCLINATION":97.4588,"RA_OF_ASC_NODE":73.9866,"ARG_OF_PERICENTER":70.6942,"MEAN_ANOMALY":289.579,"EPHEMERIS_TYPE":0,"CLASSIFICATION_TYPE":"U","NORAD_CAT_ID":41173,"ELEMENT_SET_NO":999,"REV_AT_EPOCH":56937,"BSTAR":9.1158173e-5,"MEAN_MOTION_DOT":2.617e-5,"MEAN_MOTION_DDOT":0},{"OBJECT_NAME":"STARLINK-32715","OBJECT_ID":"2025-006R","EPOCH":"2026-03-09T01:30:36.027072","MEAN_MOTION":15.27585258,"ECCENTRICITY":6.788e-5,"INCLINATION":42.9936,"RA_OF_ASC_NODE":296.3917,"ARG_OF_PERICENTER":24.9163,"MEAN_ANOMALY":335.1721,"EPHEMERIS_TYPE":0,"CLASSIFICATION_TYPE":"U","NORAD_CAT_ID":62569,"ELEMENT_SET_NO":999,"REV_AT_EPOCH":6476,"BSTAR":0.00078591994,"MEAN_MOTION_DOT":0.00021431,"MEAN_MOTION_DDOT":0}]
